{"type": "FeatureCollection", "features": [ {"type": "Feature", "properties": {"norad_id": 64901, "name": "CO3D 4", "group": "resource", "lat": 32.28302703224105, "lon": 52.125109513727566, "alt_km": 504.0693820070419, "timestamp": "2025-12-06T09:34:16.575966+00:00", "meta": {"OBJECT_NAME": "CO3D 4", "OBJECT_ID": "2025-156C", "EPOCH": "2025-12-05T22:22:12.317664", "MEAN_MOTION": 15.20193438, "ECCENTRICITY": 0.00010023, "INCLINATION": 97.435, "RA_OF_ASC_NODE": 56.3974, "ARG_OF_PERICENTER": 232.7351, "MEAN_ANOMALY": 127.3793, "EPHEMERIS_TYPE": 0, "CLASSIFICATION_TYPE": "U", "NORAD_CAT_ID": 64901, "ELEMENT_SET_NO": 999, "REV_AT_EPOCH": 2017, "BSTAR": 0.00042652368, "MEAN_MOTION_DOT": 9.175e-05, "MEAN_MOTION_DDOT": 0}, "tle": {"line1": "1 64901U 25156C   25339.93208701  .00009175  00000+0  42652-3 0  9994", "line2": "2 64901  97.4350  56.3974 0001002 232.7351 127.3793 15.20193438 20178"}}, "geometry": {"type": "Point", "coordinates": [52.125109513727566, 32.28302703224105]}}, {"type": "Feature", "properties": {"norad_id": 64902, "name": "CO3D 2", "group": "resource", "lat": -34.84931609118014, "lon": -128.46193231040724, "alt_km": 511.7636704046672, "timestamp": "2025-12-06T09:34:16.575976+00:00", "meta": {"OBJECT_NAME": "CO3D 2", "OBJECT_ID": "2025-156D", "EPOCH": "2025-12-05T21:34:11.594784", "MEAN_MOTION": 15.20206227, "ECCENTRICITY": 8.478e-05, "INCLINATION": 97.4344, "RA_OF_ASC_NODE": 56.2618, "ARG_OF_PERICENTER": 104.2207, "MEAN_ANOMALY": 255.9122, "EPHEMERIS_TYPE": 0, "CLASSIFICATION_TYPE": "U", "NORAD_CAT_ID": 64902, "ELEMENT_SET_NO": 999, "REV_AT_EPOCH": 2016, "BSTAR": 2.7929626e-05, "MEAN_MOTION_DOT": 5.37e-06, "MEAN_MOTION_DDOT": 0}, "tle": {"line1": "1 64902U 25156D   25339.89874531  .00000537  00000+0  27930-4 0  9996", "line2": "2 64902  97.4344  56.2618 0000847 104.2207 255.9122 15.20206227 20169"}}, "geometry": {"type": "Point", "coordinates": [-128.46193231040724, -34.84931609118014]}}, {"type": "Feature", "properties": {"norad_id": 64903, "name": "CO3D 1", "group": "resource", "lat": -34.025156114603476, "lon": -128.30223031900994, "alt_km": 511.68673524527003, "timestamp": "2025-12-06T09:34:16.575987+00:00", "meta": {"OBJECT_NAME": "CO3D 1", "OBJECT_ID": "2025-156E", "EPOCH": "2025-12-05T23:09:11.942784", "MEAN_MOTION": 15.20206407, "ECCENTRICITY": 0.00010018, "INCLINATION": 97.4346, "RA_OF_ASC_NODE": 56.3278, "ARG_OF_PERICENTER": 109.0047, "MEAN_ANOMALY": 251.1297, "EPHEMERIS_TYPE": 0, "CLASSIFICATION_TYPE": "U", "NORAD_CAT_ID": 64903, "ELEMENT_SET_NO": 999, "REV_AT_EPOCH": 2017, "BSTAR": 0.00011797067, "MEAN_MOTION_DOT": 2.487e-05, "MEAN_MOTION_DDOT": 0}, "tle": {"line1": "1 64903U 25156E   25339.96472156  .00002487  00000+0  11797-3 0  9991", "line2": "2 64903  97.4346  56.3278 0001001 109.0047 251.1297 15.20206407 20175"}}, "geometry": {"type": "Point", "coordinates": [-128.30223031900994, -34.025156114603476]}}, {"type": "Feature", "properties": {"norad_id": 66514, "name": "SENTINEL-6B", "group": "resource", "lat": -14.807852191987259, "lon": 168.8922247026356, "alt_km": 1319.3995874167304, "timestamp": "2025-12-06T09:34:16.575997+00:00", "meta": {"OBJECT_NAME": "SENTINEL-6B", "OBJECT_ID": "2025-264A", "EPOCH": "2025-12-05T07:31:22.416096", "MEAN_MOTION": 12.8587776, "ECCENTRICITY": 0.00115487, "INCLINATION": 66.0393, "RA_OF_ASC_NODE": 177.917, "ARG_OF_PERICENTER": 268.403, "MEAN_ANOMALY": 91.5665, "EPHEMERIS_TYPE": 0, "CLASSIFICATION_TYPE": "U", "NORAD_CAT_ID": 66514, "ELEMENT_SET_NO": 999, "REV_AT_EPOCH": 233, "BSTAR": 0.0002937849, "MEAN_MOTION_DOT": 1.1e-07, "MEAN_MOTION_DDOT": 0}, "tle": {"line1": "1 66514U 25264A   25339.31345389  .00000011  00000+0  29378-3 0  9992", "line2": "2 66514  66.0393 177.9170 0011548 268.4030  91.5665 12.85877760  2336"}}, "geometry": {"type": "Point", "coordinates": [168.8922247026356, -14.807852191987259]}}]}